GMID,Dataset,Facility Name,Address,數據集,設施名稱,地址,District,地區,Facility Type,設施種類,Opening Hours,開放時間,Telephone,聯絡電話,Fax Number,傳真號碼,Email Address,電郵地址,Website,網頁,Facility Details,設施詳情,Northing,Easting,Latitude,Longitude,Last Update
"DzQ5mH05w5","Parks, Zoos and Gardens","Cheung Fai Road Promenade","Cheung Fai Road, Tsing Yi, N.T.","公園及動植物公園","長輝路海濱花園","青衣長輝路","KWAI TSING","葵青","INCLUSIVE PARK FOR PETS","寵物共享公園","24 hours daily","每日24小時開放","2481 5435","2481 5435","","","","","","","Dog excreta collection bin","狗糞收集箱","823420.0","829517.0","22.34987903","114.11133484","2022-04-19 08:23:36"
"klKC2x8CVF","Parks, Zoos and Gardens","Pui To Road (South) Rest Garden","Tin Hau Road, Tuen Mun","公園及動植物公園","杯渡路(南)休憩花園","屯門天后路","TUEN MUN","屯門","INCLUSIVE PARK FOR PETS","寵物共享公園","24 HOURS DAILY","每日24小時開放","2451 3110","2451 3110","","","","","","","Water dispenser, Toilets (with accessible toilets), Dog excreta collection bin","飲水設施、洗手間(設有暢通易達洗手間)、狗糞收集箱","828149.0","815145.0","22.3924687","113.971751","2022-04-19 03:36:08"
"anub7Fp9zb","Parks, Zoos and Gardens","Tuen Mun Park","Tuen Mun Heung Sze Wui Road, Tuen Mun","公園及動植物公園","屯門公園","屯門屯門鄉事會路","TUEN MUN","屯門","AMPHITHEATRE,BADMINTON COURTS,CYCLING TRACKS/GROUNDS,INCLUSIVE PARK FOR PETS,MODEL BOAT POOLS,PARK,VOLLEYBALL COURTS","露天劇場,羽毛球場,單車徑/場,寵物共享公園,模型船池,公園,排球場","24 hours daily","每日24小時開放","2451 1144","2451 1144","N.A.","N.A.","N.A.","N.A.","http://www.lcsd.gov.hk/en/ls_park.php","http://www.lcsd.gov.hk/b5/ls_park.php","Dog excreta collection bin, Water dispenser, Toilets (with accessible toilets)","狗糞收集箱、飲水設施、洗手間(設有暢通易達洗手間)","828090.0","815319.0","22.39193385","113.97344392","2022-04-19 03:34:43"
"OBJ88Ylg3K","Parks, Zoos and Gardens","Waterfall Bay Park","Waterfall Bay Road, Wah Fu Estate","公園及動植物公園","瀑布灣公園","華富邨瀑布灣道","SOUTHERN","南區","INCLUSIVE PARK FOR PETS","寵物共享公園","24 HOURS DAILY","每日24小時開放","2555 1268","2555 1268","","","","","","","Toilet (with accessible toilet), dog excreta collection bin","洗手間(設有暢通易達洗手間)、狗糞收集箱","812386.0","831960.0","22.2502441","114.13508775","2022-04-19 03:31:41"
"CMBU6quaVP","Parks, Zoos and Gardens","Ap Lei Chau Waterfront Promenade","Ap Lei Chau Main Street, Ap Lei Chau, Hong Kong","公園及動植物公園","鴨脷洲海濱長廊","香港鴨脷洲鴨脷洲大街","SOUTHERN","南區","DOG GARDENS/PET GARDENS,INCLUSIVE PARK FOR PETS,SITTING-OUT AREA","狗公園/寵物公園,寵物共享公園,休憩處","24 hours daily","每日24小時開放","2555 1268","2555 1268","N.A.","N.A.","N.A.","N.A.","N.A.","N.A.","Toilet (with accessible toilet), dog excreta collection bin","洗手間(設有暢通易達洗手間)、狗糞收集箱","811786.0","834058.0","22.2448246","114.15543843","2022-04-19 03:29:14"
"eqyDcOtmUV","Parks, Zoos and Gardens","Ap Lei Chau Park","Ap Lei Chau Main Street, Ap Lei Chau, Hong Kong","公園及動植物公園","鴨脷洲公園","香港鴨脷洲鴨脷洲大街","SOUTHERN","南區","INCLUSIVE PARK FOR PETS,PLAY EQUIPMENT FOR ALL CHILDREN","寵物共享公園,共融遊樂設施","24 hours daily","每日24小時開放","2555 1268","2555 1268","N.A.","N.A.","N.A.","N.A.","N.A.","N.A.","Toilets (with accessible toilets), dog excreta collection bin","洗手間(設有暢通易達洗手間)、狗糞收集箱","811819.0","834309.0","22.24512201","114.15787523","2022-04-19 03:24:46"
"JfoDsKxCKD","Parks, Zoos and Gardens","Wo Keng Shan Road Garden","Wo Keng Shan Road, Sha Tau Kok Road, Fanling, N.T","公園及動植物公園","禾徑山路花園","新界粉嶺沙頭角路禾徑山路","NORTH","北區","INCLUSIVE PARK FOR PETS","寵物共享公園","24 HOURS DAILY","每日24小時開放","2679 2826","2679 2826","","","","","","","Pavilion, Arbour, Park bench, Dog excreta collection bin","涼亭、陰棚、公園座椅、狗糞收集箱","842517.0","836543.0","22.52234447","114.17954941","2022-04-19 03:20:18"
"IpOIObANJV","Parks, Zoos and Gardens","Cafeteria Old Beach Sitting-out Area","Cafeteria Old Beach, Tuen Mun","公園及動植物公園","舊咖啡灣休憩處","屯門舊咖啡灣","TUEN MUN","屯門","INCLUSIVE PARK FOR PETS","寵物共享公園","24 HOURS DAILY","每日24小時開放","2451 3110","2451 3110","","","","","","","Dog excreta collection bin","狗糞收集箱","826252.0","816524.0","22.3753477","113.98517","2022-02-09 01:56:28"
"t6UJegIWPD","Parks, Zoos and Gardens","Kai Tak Sky Garden","Shing Fung Road, Kai Tak","公園及動植物公園","啟德空中花園","九龍啟德承豐道","KOWLOON CITY","九龍城","INCLUSIVE PARK FOR PETS","寵物共享公園","24 HOURS DAILY","每日24小時開放","2806 3210","2806 3210","","","","","","","Dog excreta collection bin","狗糞收集箱","819135.0","839449.0","22.3111919","114.207753","2022-02-09 01:52:48"
"awgISuDmyo","Parks, Zoos and Gardens","Central and Western Distrcit Promenade - Western Wholesale Food Market Setcion","8 Fung Mat Road, Sai Wan","公園及動植物公園","中西區海濱長廊 – 西區副食品批發市場段","西環豐物道 8 號","CENTRAL AND WESTERN","中西區","INCLUSIVE PARK FOR PETS","寵物共享公園","24 hours daily<br/>(From 7am to 11pm at waterfront area along pier 5)","每日24小時開放<br/> (五號碼頭臨海地段每日早上7時至晚上11時)","2853 2575","2853 2575","","","","","","","Toilets (with accessible toilets), Dog excreta collection bin","洗手間(設有暢通易達洗手間)、狗糞收集箱","816738.0","832058.0","22.2895423","114.13602576","2022-02-09 01:45:05"
"xtjKGEYMwC","Parks, Zoos and Gardens","Tai Po Kau Park","Tai Po Road (Tai Po Kau), Tai Po Kau","公園及動植物公園","大埔滘公園","大埔滘大埔公路大埔滘段","TAI PO","大埔","INCLUSIVE PARK FOR PETS","寵物共享公園","24 HOURS DAILY","每日24小時開放","3183 9049","3183 9049","","","","","","","Toilets facilities, Dog excreta collection bin","洗手間、狗糞收集箱","832612.0","837521.0","22.43290165","114.18904932","2022-01-31 04:30:09"
"yLiQUF5qSL","Parks, Zoos and Gardens","Tolo Harbour Garden","Tolo Highway, Tai Po","公園及動植物公園","吐露港花園","大埔吐露港公路","TAI PO","大埔","INCLUSIVE PARK FOR PETS","寵物共享公園","24 HOURS DAILY","每日24小時開放","3183 9049","3183 9049","","","","","","","Dog excreta collection bin","狗糞收集箱","833465.0","837142.0","22.4406047","114.185365","2022-01-31 04:29:37"
"hWRs4zr8CD","Parks, Zoos and Gardens","Yuen Chau Tsai Park","Island House Lane, Tai Po","公園及動植物公園","元洲仔公園","大埔元洲仔里","TAI PO","大埔","INCLUSIVE PARK FOR PETS","寵物共享公園","24 HOURS DAILY","每日24小時開放","3183 9049","3183 9049","","","","","","","Dog excreta collection bin, Toilets (with accessible toilets)","狗糞收集箱、洗手間(設有暢通易達洗手間)","834315.0","836310.0","22.448282","114.17728543","2022-01-31 04:29:18"
"iW7u7j4jI3","Parks, Zoos and Gardens","Tat Wan Road Sitting out Area","Tat Wan Road, Tai Po","公園及動植物公園","達運道休憩處","大埔達運道","TAI PO","大埔","INCLUSIVE PARK FOR PETS","寵物共享公園","24 HOURS DAILY","每日24小時開放","3183 9050","3183 9050","","","","","","","Dog excreta collection bin","狗糞收集箱","833267.0","835001.0","22.43881124","114.16457003","2022-01-31 04:28:45"
"sgCQLfMsLv","Parks, Zoos and Gardens","Peng Lei Road Sitting-out Area","Peng Lei Road, Peng Chau","公園及動植物公園","坪利路休憩處","坪洲坪利路","ISLANDS","離島","INCLUSIVE PARK FOR PETS","寵物共享公園","24 HOURS DAILY","每日24小時開放","2852 3220","2852 3220","","","","","","","Dog excreta collection bin, Toilets (with accessible toilets)","狗糞收集箱, 洗手間(設有暢通易達洗手間)","816623.0","821728.0","22.28845208","114.03578081","2022-01-31 04:27:38"
"AOB3WlF5Sl","Parks, Zoos and Gardens","Don Bosco Road Garden","Don Bosco Road, Cheung Chau","公園及動植物公園","思高路花園","長洲思高路","ISLANDS","離島","INCLUSIVE PARK FOR PETS","寵物共享公園","24 HOURS DAILY","每日24小時開放","2852 3220","2852 3220","","","","","","","Dog excreta collection bin","狗糞收集箱","807174.0","821727.0","22.20311771","114.035859","2022-01-31 04:26:51"
"FFsMKzC2pj","Parks, Zoos and Gardens","King Fuk Street Sitting-out Area","King Fuk Street, Wong Tai Sin","公園及動植物公園","景福街休憩處","黃大仙，景福街","WONG TAI SIN","黃大仙","INCLUSIVE PARK FOR PETS","寵物共享公園","24 HOURS DAILY","每日24小時開放","2328 9262","2328 9262","","","","","","","Park bench, Dog excreta collection bin","公園座椅、狗糞收集箱","821645.0","838262.0","22.33386391","114.19623143","2022-01-31 04:26:31"
"ru4VUm5riY","Parks, Zoos and Gardens","Kwai Hei Street Sitting-out Area","Kwai Fuk Road, Kwai Chung","公園及動植物公園","葵喜街休憩處","葵涌葵福路","KWAI TSING","葵青","INCLUSIVE PARK FOR PETS","寵物共享公園","24 HOURS DAILY","每日24小時開放","2423 3408","2423 3408","","","","","","","Dog excreta collection bin","狗糞收集箱","824296.0","830819.0","22.35779478","114.1239729","2022-01-31 04:26:00"
"QA2yMBxHw6","Parks, Zoos and Gardens","Shek Pui Street Garden","Shek Pui Street, Kwai Chung","公園及動植物公園","石貝街花園","葵涌石貝街","KWAI TSING","葵青","INCLUSIVE PARK FOR PETS","寵物共享公園","24 HOURS DAILY","每日24小時開放","2425 0691","2425 0691","","","","","","","Dog excreta collection bin","狗糞收集箱","825052.0","832124.0","22.3646227","114.136647","2022-01-31 04:25:37"
"8SediT3jwt","Parks, Zoos and Gardens","Jockey Club Kwai Shing Circuit Sitting-out Area","Kwai Shing Circuit, Kwai Chung","公園及動植物公園","賽馬會葵盛圍休憩處","葵涌葵盛圍","KWAI TSING","葵青","INCLUSIVE PARK FOR PETS","寵物共享公園","24 HOURS DAILY","每日24小時開放","2423 3408","2423 3408","","","","","","","Dog excreta collection bin","狗糞收集箱","824574.0","830831.0","22.36030108","114.12409225","2022-01-31 04:25:18"
"52OrgDWf24","Parks, Zoos and Gardens","Kam Fung Street Sitting-out Area","Kam Fung Street , Wong Tai Sin","公園及動植物公園","金鳳街休憩處","黃大仙，金鳳街","WONG TAI SIN","黃大仙","INCLUSIVE PARK FOR PETS","寵物共享公園","24 HOURS DAILY","每日24小時開放","2328 9262","2328 9262","","","","","","","Arbour, Park bench, Dog excreta collection bin","陰棚、公園座椅、狗糞收集箱","822865.0","838444.0","22.34487565","114.19799962","2022-01-31 04:24:52"
"wykvjbGKqL","Parks, Zoos and Gardens","Shing Mun River Promenade Garden No.3","Tai Chung Kiu Road, City One, Sha Tin","公園及動植物公園","城門河第三海濱花園","沙田第一城大涌橋路","SHA TIN","沙田","INCLUSIVE PARK FOR PETS","寵物共享公園","24 HOURS DAILY","每日24小時開放","2634 0119","2634 0119","","","","","","","Dog excreta collection bin","狗糞收集箱","828025.0","838557.0","22.3914707","114.199105","2022-01-31 04:20:28"
"YIjOe1WBPO","Parks, Zoos and Gardens","Shing Mun River Promenade Garden No.2","Tai Chung Kiu Road, Sha Tin","公園及動植物公園","城門河第二海濱花園","沙田大涌橋路","SHA TIN","沙田","INCLUSIVE PARK FOR PETS","寵物共享公園","24 HOURS DAILY","每日24小時開放","2634 0119","2634 0119","","","","","","","Dog excreta collection bin","狗糞收集箱","827765.0","838844.0","22.3891267","114.201896","2022-01-31 04:20:07"
"rsWb6zf6ol","Parks, Zoos and Gardens","Shing Mun River Promenade Garden No.1","Che Kung Miu Road, Sha Tin","公園及動植物公園","城門河第一海濱花園","沙田車公廟路","SHA TIN","沙田","INCLUSIVE PARK FOR PETS","寵物共享公園","24 HOURS DAILY","每日24小時開放","2634 0147","2634 0147","","","","","","","Dog excreta collection bin","狗糞收集箱","826420.0","837607.0","22.3769827","114.189885","2022-01-31 04:19:41"
"ZlzoiCJrMO","Parks, Zoos and Gardens","Ma On Shan Sai Sha Road Garden","Sai Sha Road, Ma On Shan","公園及動植物公園","馬鞍山西沙路花園","馬鞍山西沙路","SHA TIN","沙田","INCLUSIVE PARK FOR PETS","寵物共享公園","24 HOURS DAILY","每日24小時開放","2634 0143","2634 0143","","","","","","","Dog excreta collection bin","狗糞收集箱","831678.0","841463.0","22.4244587","114.227343","2022-01-31 04:19:21"
"cgq9zoZpkE","Parks, Zoos and Gardens","Mei Tin Road Sitting-out Area","Mei Tin Road, Tai Wai","公園及動植物公園","美田路休憩處","大圍美田路","SHA TIN","沙田","INCLUSIVE PARK FOR PETS","寵物共享公園","24 HOURS DAILY","每日24小時開放","2634 0147","2634 0147","","","","","","","Dog excreta collection bin","狗糞收集箱","826443.0","836011.0","22.3771877","114.174382","2022-01-31 04:18:56"
"zjmZswl3Xs","Parks, Zoos and Gardens","Bowen Road Park","Bowen Road, Wan Chai","公園及動植物公園","寶雲道公園","灣仔寶雲道","WAN CHAI","灣仔","DOG GARDENS/PET GARDENS,INCLUSIVE PARK FOR PETS,PARK","狗公園/寵物公園,寵物共享公園,公園","24 hours daily","每日24小時開放","2879 5612","2879 5612","N.A.","N.A.","N.A.","N.A.","","","Park bench, Dog Excreta Collection Bin","公園座椅, 狗糞收集箱","814576.0","835720.0","22.27002819","114.17156615","2022-01-31 04:16:32"
"y5iTBUit2B","Parks, Zoos and Gardens","Bowen Road Garden","Bowen Road, Wan Chai","公園及動植物公園","寶雲道花園","灣仔寶雲道","WAN CHAI","灣仔","DOG GARDENS/PET GARDENS,GARDEN,INCLUSIVE PARK FOR PETS","狗公園/寵物公園,花園,寵物共享公園","24 hours daily","每日24小時開放","2879 5612","2879 5612","N.A.","N.A.","N.A.","N.A.","","","Park bench, Dog Excreta Collection Bin","公園座椅, 狗糞收集箱","814869.0","835132.0","22.27267183","114.16585196","2022-01-31 04:15:01"
"Mo3hIXgmYC","Parks, Zoos and Gardens","Tsing Bik Sitting-out Area","Tsing Bik Street, Tuen Mun","公園及動植物公園","青碧休憩處","屯門青碧街","TUEN MUN","屯門","INCLUSIVE PARK FOR PETS","寵物共享公園","24 HOURS DAILY","每日24小時開放","2451 3110","2451 3110","","","","","","","Dog excreta collection bin","狗糞收集箱","826466.0","816030.0","22.37727587","113.98036861","2022-01-31 04:07:10"
"AEXuVgzHoI","Parks, Zoos and Gardens","San On Sitting-out Area","San On Street, Tuen Mun","公園及動植物公園","新安休憩處","屯門新安街","TUEN MUN","屯門","INCLUSIVE PARK FOR PETS","寵物共享公園","24 HOURS DAILY","每日24小時開放","2451 3110","2451 3110","","","","","","","Dog excreta collection bin","狗糞收集箱","828208.0","815011.0","22.39299937","113.97045475","2022-01-31 03:58:27"
"Oa1StqAyva","Parks, Zoos and Gardens","Sheung Tsuen Park","Kam Sheung Road, Yuen Long","公園及動植物公園","上村公園","元朗錦上路","YUEN LONG","元朗","INCLUSIVE PARK FOR PETS","寵物共享公園","24 HOURS DAILY","每日24小時開放","2475 3445 / 2470 7137","2475 3445 / 2470 7137","","","","","","","Dog excreta collection bin","狗糞收集箱","832497.0","828625.0","22.43184428","114.10263598","2022-01-31 03:56:56"
"0V6UUhI4vF","Parks, Zoos and Gardens","Tin Tsz Garden","Tin Shui Road, Tin Shui Wai, Yuen Long","公園及動植物公園","天慈花園","元朗天水圍天瑞路","YUEN LONG","元朗","INCLUSIVE PARK FOR PETS","寵物共享公園","24 HOURS DAILY","每日24小時開放","2443 0513 / 2476 7350","2443 0513 / 2476 7350","","","","","","","Dog excreta collection bin","狗糞收集箱","834742.0","818940.0","22.4520446","114.00852996","2022-01-31 03:56:22"
"TDoJrCvbXu","Parks, Zoos and Gardens","Hang Hau Garden","Tin Chau Road, Hang Hau, Tseung Kwan O. N.T.","公園及動植物公園","坑口花園","新界將軍澳坑口田洲路","SAI KUNG","西貢","INCLUSIVE PARK FOR PETS","寵物共享公園","24 HOURS DAILY","每日24小時開放","2791 3112","2791 3112","","","","","","","Dog excreta collection bin","狗糞收集箱","819518.0","845749.0","22.31462998","114.26889435","2022-01-31 03:54:40"
"AsRznRLqdt","Parks, Zoos and Gardens","Sun Pat Kan Sitting-out Area","Wong Ma Kok Road, Stanley","公園及動植物公園","新八間休憩處","赤柱黄蔴角道","SOUTHERN","南區","INCLUSIVE PARK FOR PETS","寵物共享公園","24 HOURS DAILY","每日24小時開放","2555 1268","2555 1268","","","","","","","Dog excreta collection bin","狗糞收集箱","808682.0","840033.0","22.21679304","114.21339815","2022-01-31 03:49:51"
"Qu1wZDSIhb","Parks, Zoos and Gardens","Hung Shing Street Rest Garden","Wai Fung Street, Ap Lei Chau","公園及動植物公園","洪聖街休憩花園","鴨脷洲惠風街","SOUTHERN","南區","INCLUSIVE PARK FOR PETS","寵物共享公園","24 HOURS DAILY","每日24小時開放","2555 1268","2555 1268","","","","","","","Dog excreta collection bin","狗糞收集箱","811779.0","834144.0","22.24476715","114.15627072","2022-01-31 03:46:45"
"HqkybXOO3v","Parks, Zoos and Gardens","Wing Hong Street Rest Garden","Wing Hong Street","公園及動植物公園","永康街休憩花園","永康街","SHAM SHUI PO","深水埗","INCLUSIVE PARK FOR PETS","寵物共享公園","24 HOURS DAILY","每日24小時開放","2370 9193","2370 9193","","","","","","","Dog excreta collection bin","狗糞收集箱","822349.0","833638.0","22.3402211","114.15134387","2022-01-31 03:43:42"
"1e0VvRjAeV","Parks, Zoos and Gardens","Lung Cheung Road Lookout","Lung Cheung Road","公園及動植物公園","龍翔道眺望處","龍翔道","SHAM SHUI PO","深水埗","INCLUSIVE PARK FOR PETS","寵物共享公園","24 HOURS DAILY","每日24小時開放","2370 9954","2370 9954","","","","","","","Dog excreta collection bin","狗糞收集箱","822640.0","835706.0","22.34284928","114.17142429","2022-01-31 03:42:14"
"nrf7kVf4PE","Parks, Zoos and Gardens","Pier 3 Garden","Roof, Central Pier No. 3,Man Kwong Street, Central","公園及動植物公園","三號碼頭花園","中環民光街3號碼頭天台","CENTRAL AND WESTERN","中西區","INCLUSIVE PARK FOR PETS","寵物共享公園","24 HOURS DAILY","每日24小時開放","2853 2573","2853 2573","","","","","","","Dog excreta collection bin","狗糞收集箱","816565.0","834269.0","22.28798776","114.15747841","2022-01-31 03:26:32"
"ame04g5LEB","Parks, Zoos and Gardens","Pier 2 Garden","Roof, Central Pier No. 2, Man Kwong Street, Central","公園及動植物公園","二號碼頭花園","中環民光街2號碼頭天台","CENTRAL AND WESTERN","中西區","INCLUSIVE PARK FOR PETS","寵物共享公園","24 HOURS DAILY","每日24小時開放","2853 2573","2853 2573","","","","","","","Dog excreta collection bin","狗糞收集箱","816590.0","834174.0","22.28821414","114.15655701","2022-01-31 03:25:15"
"lWwGMeiCi8","Parks, Zoos and Gardens","Central Pier Waterfront","Man Kwong Street, Central","公園及動植物公園","中環碼頭海濱長廊","中環民光街","CENTRAL AND WESTERN","中西區","INCLUSIVE PARK FOR PETS","寵物共享公園","24 HOURS DAILY","每日24小時開放","2853 2573","2853 2573","","","","","","","Dog excreta collection bin","狗糞收集箱","816493.0","834422.0","22.28733541","114.15896775","2022-01-31 03:19:58"
"vM8epVBV12","Parks, Zoos and Gardens","Wing Lee Street Rest Garden","Wing Lee Street, Sheung Wan","公園及動植物公園","永利街休憩花園","上環永利街","CENTRAL AND WESTERN","中西區","INCLUSIVE PARK FOR PETS","寵物共享公園","24 HOURS DAILY","每日24小時開放","2853 2605","2853 2605","","","","","","","Dog excreta collection bin","狗糞收集箱","816041.0","833514.0","22.28325187","114.15015473","2022-01-31 03:14:46"
"8r5ilZjxe6","Parks, Zoos and Gardens","Central & Western District Promenade-Sheung Wan Section","Chung Kong Road, Sheung Wan","公園及動植物公園","中西區海濱長廊-上環段","上環中港道","CENTRAL AND WESTERN","中西區","INCLUSIVE PARK FOR PETS","寵物共享公園","24 HOURS DAILY","每日24小時開放","2540 9704","2540 9704","","","","","","","Dog excreta collection bin","狗糞收集箱","816705.0","833472.0","22.28924856","114.14974796","2022-01-31 03:11:07"
"ryTLj0YW3Y","Parks, Zoos and Gardens","Tin Ping Road Garden","Tin Ping Road, Sheung Shui, N.T.","公園及動植物公園","天平路花園","上水天平路","NORTH","北區","INCLUSIVE PARK FOR PETS","寵物共享公園","24 HOURS DAILY","每日24小時開放","2679 2826","2679 2826","","","","","","","Pavilion, Arbour, Park bench, Dog excreta collection bin, Hand-washing facilities","涼亭、陰棚、公園座椅、狗糞收集箱、洗手設施","841075.0","831115.0","22.50931355","114.12679133","2022-01-31 03:06:06"
"XbD9zTwZmi","Parks, Zoos and Gardens","Kai Tak Avenue Park","16 Muk On Street, Kowloon City","公園及動植物公園","啟德大道公園","九龍城沐安街16號","KOWLOON CITY","九龍城","BASKETBALL COURTS,CHILDREN’S PLAY AREA,FITNESS EQUIPMENT","籃球場,兒童遊樂場,健體園灺","N.A.","N.A.","2706 5813","2706 5813","2706 5466","2706 5466","N.A.","N.A.","","","Basketball Courts, Toilets are provided in the Park, Other facilities include a children's playground and 6 fitness corners, Barrier Free Facilities: Accessible Toilet, Tactile Guide Path, Braille Directory Map/Floor Plan","籃球場, 公園內設有洗手間, 其他設施包括1個兒童遊樂場和6個健身園地, <br/>無障礙設施：暢通易達洗手間、觸覺引路帶、觸覺點字及觸覺平面圖。","821195.0","838790.0","22.32979782","114.20135491","2022-01-31 02:01:40"
"TIvqY40FUn","Parks, Zoos and Gardens","Tai Po Waterfront Park","Dai Fat Street, Tai Po","公園及動植物公園","大埔海濱公園","大埔大發街","TAI PO","大埔","AMPHITHEATRE,BOWLING GREENS,GATEBALL COURTS,INCLUSIVE PARK FOR PETS,JOGGING TRACKS/FITNESS TRAILS,MODEL BOAT POOLS,PARK","露天劇場,草地滾球場,門球場,寵物共享公園,緩跑徑/健身徑,模型船池,公園","24 hours daily","每日24小時開放","2667 5489","2667 5489","N.A.","N.A.","N.A.","N.A.","http://www.lcsd.gov.hk/en/ls_park.php","http://www.lcsd.gov.hk/b5/ls_park.php","Dog excreta collection bin","狗糞收集箱","834708.0","836487.0","22.45182725","114.17900493","2022-01-28 06:50:27"
"26izZF3OaR","Parks, Zoos and Gardens","Wan Chai Gap Park","Stubbs Road , Wan Chai","公園及動植物公園","灣仔峽公園","灣仔司徒拔道","WAN CHAI","灣仔","DOG GARDENS/PET GARDENS,INCLUSIVE PARK FOR PETS,PARK","狗公園/寵物公園,寵物共享公園,公園","24 hours daily","每日24小時開放","2879 5612","2879 5612","N.A.","N.A.","N.A.","N.A.","","","Park bench, Dog Excreta Collection Bin","公園座椅, 狗糞收集箱","814252.0","835494.0","22.26709982","114.16936458","2022-01-28 01:39:54"
"FYLkrNwvlv","Parks, Zoos and Gardens","Sai Kung Waterfront Park","Wai Man Road, Sai Kung","公園及動植物公園","西貢海濱公園","西貢惠民路","SAI KUNG","西貢","INCLUSIVE PARK FOR PETS,PLAY EQUIPMENT FOR ALL CHILDREN","寵物共享公園,共融遊樂設施","24 HOURS DAILY","每日24小時開放","2791 0158","2791 0158","N.A.","N.A.","N.A.","N.A.","N.A.","N.A.","Dog excreta collection bin","狗糞收集箱","827041.0","846336.0","22.38255826","114.27464489","2022-01-21 07:38:35"
"5wh83GvZu0","Parks, Zoos and Gardens","Tai Tsoi Yuen Garden","Tai Tsoi Yuen Road, Cheung Chau","公園及動植物公園","大菜園花園","長洲大菜園路","ISLANDS","離島","GATEBALL COURTS","門球場","2 pm to 6 pm<br/><br/>Turf maintenance on every Thursday","下午2時至6時<br/><br/>逢星期四草地保養","2852 3220","2852 3220","N.A.","N.A.","N.A.","N.A.","N.A.","N.A.","","","807386.0","821039.0","22.20503122","114.02918811","2022-01-20 01:41:25"
"7jzyallSK9","Parks, Zoos and Gardens","Tai Tau Leng Sitting-out Area","Tai Tau Leng Village, Po Shek Wu Road, Sheung Shui, N.T.","公園及動植物公園","大頭嶺休憩處","新界上水寶石湖路大頭嶺村","NORTH","北區","BADMINTON COURTS,CHILDREN’S PLAY AREA","羽毛球場,兒童遊樂場","24 hours daily","全日開放","2679 2818","2679 2818","N.A.","N.A.","N.A.","N.A.","N.A.","N.A.","","","840075.0","830754.0","22.50028734","114.12329124","2022-01-20 01:41:24"
"3YLT6VjX4m","Parks, Zoos and Gardens","Yat Ming Road Park","Junction of Yat Ming Road and Pak Wo Road","公園及動植物公園","一鳴路公園","粉嶺一鳴路與百和路交界","FANLING","粉嶺","DOG GARDENS/PET GARDENS,FITNESS EQUIPMENT,JOGGING TRACKS/FITNESS TRAILS,PLAY EQUIPMENT FOR ALL CHILDREN,CHILDREN’S PLAY AREA","狗公園/寵物公園,健體園灺,緩跑徑/健身徑,共融遊樂設施,兒童遊樂場","6 am to 11 pm daily","每日早上六時至晚上十一時","2679 2818","2679 2818","2671 5410","2671 5410","mppn2@lcsd.gov.hk","mppn2@lcsd.gov.hk","N.A.","N.A.","The venue provides drinking fountains, arbours and sitting benches, children's play equipment, pet garden, elderly fitness equipment, fitness equipment, jogging tracks, toilet, toilet for person with disability, lawn, Tai Chi area","場內設有飲水機,蔭棚及坐椅,兒童遊樂設施,狗公園/寵物公園 ,長者健身設施,健身設施,緩跑徑,洗手間,暢通易達洗手間,大草地,太極場","838445.0","832974.0","22.48556901","114.14487316","2022-01-11 03:45:21"
"kMdx2XRzRD","Parks, Zoos and Gardens","East Coast Park (Phase 1)","East Coast Park (Phase 1)","公園及動植物公園","東岸公園 (第一期)","東岸公園 (第一期)","WAN CHAI","灣仔","PARK","公園","24 HOURS DAILY","每日24小時開放","2879 5612","2879 5612","N.A.","N.A.","N.A.","N.A.","N.A.","N.A.","Dog Excreta Collection Bin, Arbours, Benches","狗糞收集箱, 涼亭, 坐椅","816559.0","837536.0","22.28792912","114.18918445","2021-10-05 03:17:21"
"xPj7QCbFnV","Parks, Zoos and Gardens","Ma Wo Road Garden","2 Ma Wo Road, Tai Po, New Territories","公園及動植物公園","馬窩路花園","新界大埔馬窩路2號","TAI PO","大埔","PARK","公園","7 A.M. to 11 P.M. daily","每日上午7時至晚上11時","3183 9050","3183 9050","2651 0315","2651 0315","mpptp2@lcsd.gov.hk","mpptp2@lcsd.gov.hk","N.A.","N.A.","2 Basketball cum volleyball courts, fitness corner, pebble walking trail, chess tables, men's and ladies' toilets and changing rooms , babycare room, universal toilet, Barrier Free Facilities: Accessible Toilet, Tactile Guide Path, Braille Directory Map/Floor Plan","2個籃球暨排球場、健身區、卵石路步行徑、棋枱、男、女洗手間及更衣室、 育嬰室、通用洗手間、 無障礙設施： 暢通易達洗手間、觸覺引路帶、觸覺點字及觸覺平面圖","833702.0","835103.0","22.44273833","114.16555697","2021-06-22 07:16:35"
"OOlKwDWFKQ","Parks, Zoos and Gardens","On Sau Road Park","On Sau Road, Kwun Tong","公園及動植物公園","安秀道公園","觀塘安秀道","KWUN TONG","觀塘","FITNESS EQUIPMENT,JOGGING TRACKS/FITNESS TRAILS","健體園灺,緩跑徑/健身徑","24 hr","24 hr","2553 5532","2553 5532","2553 5564","2553 5564","N.A.","N.A.","N.A.","N.A.","8 Fitness Stations. Toilets and changing rooms with lockers are provided in the Park. (including accessible toilets). Barrier Free Facilities: Accessible Toilet, Tactile Guide Path, Braille Directory Map/Floor Plan","8 個健身設施. 公園內設有男 / 女洗手間、更衣室及貯物櫃. 無障礙設施：暢通易達洗手間、觸覺引路帶、觸覺點字及觸覺平面圖","820442.0","841951.0","22.3229847","114.232035","2021-03-26 06:23:11"
"Dz8YN6Pk0H","Parks, Zoos and Gardens","Ki Lun Kong Public Park","Opposite to Sam Shing Estate, Castle Peak Road, Tuen Mun","公園及動植物公園","麒麟崗公眾公園","屯門青山公路三聖邨對面","TUEN MUN","屯門","DOG GARDENS/PET GARDENS","狗公園/寵物公園","24 hours daily","每日24小時開放","2451 3105","2451 3105","2459 2175","2459 2175","N.A.","N.A.","N.A.","N.A.","Dog excreta collection bin","狗糞收集箱","827035.0","815854.0","22.3824184","113.97865514","2021-02-09 03:06:53"
"qo1WuHhKZG","Parks, Zoos and Gardens","Tong Yam Street Hillside Sitting-out Area","Tong Yam Street, Shek Kip Mei","公園及動植物公園","棠蔭街山邊休憩處","石硤尾棠蔭街","SHAM SHUI PO","深水埗","DOG GARDENS/PET GARDENS,SITTING-OUT AREA","狗公園/寵物公園,休憩處","24 hours daily","每日24小時開放","2370 9954","2370 9954","2370 9954","2370 9954","N.A.","N.A.","N.A.","N.A.","Wash basin, two nos. of dog excreta collection bin","洗手盆, 兩個狗糞收集箱","821041.0","835545.0","22.32840315","114.16985649","2020-11-20 01:32:00"
"vZttZbdzhg","Parks, Zoos and Gardens","San Wan Road Sitting-out Area","San Wan Road, Fanling","公園及動植物公園","新運路休憩處","新界粉嶺新運路","NORTH","北區","FITNESS EQUIPMENT,SITTING-OUT AREA","健體園灺,休憩處","24 Hours Daily","全日24小時開放","N.A.","N.A.","N.A.","N.A.","N.A.","N.A.","N.A.","N.A.","Elderly Fitness Corner","長者健身園地","839510.0","832103.0","22.49518487","114.13640676","2020-03-13 07:41:17"
"ylVXUwSXzA","Parks, Zoos and Gardens","Wan Chai Gap Park","Coombe Road, Mid-Levels, Wan Chai, HK","公園及動植物公園","灣仔峽公園","香港灣仔半山區甘道","WAN CHAI","灣仔","PLAY EQUIPMENT FOR ALL CHILDREN,FITNESS EQUIPMENT,LIGHT REFRESHMENT KIOSK","共融遊樂設施,健體園灺,小食亭","24 Hours","全日24 小時","N.A.","N.A.","N.A.","N.A.","N.A.","N.A.","N.A.","N.A.","Children’s Play Equipment, Fitness Equipment for the Elderly, Light Refreshment Kiosk, Toilets","兒童遊樂設施, 長者健體園地, 小食亭, 洗手間","814244.0","835480.0","22.2670266","114.16923079","2019-12-04 07:27:02"
"oKxHLeZpUy","Parks, Zoos and Gardens","Wu King Road Garden","Wu King Road, Tuen Mun","公園及動植物公園","湖景路花園","屯門湖景路","TUEN MUN","屯門","PARK","公園","N.A.","N.A.","N.A.","N.A.","N.A.","N.A.","N.A.","N.A.","N.A.","N.A.","N.A.","N.A.","826267.0","814594.0","22.37545989","113.96642758","2019-10-18 03:36:27"
"6rViC3SPUx","Parks, Zoos and Gardens","On Muk Street Garden","On Muk Street, Sha Tin","公園及動植物公園","安睦街花園","沙田安睦街","SHA TIN","沙田","PARK","公園","N.A.","N.A.","N.A.","N.A.","N.A.","N.A.","N.A.","N.A.","N.A.","N.A.","N.A.","N.A.","827795.0","839176.0","22.38939996","114.20511619","2019-10-18 03:36:13"
"Kkd5gIkkCx","Parks, Zoos and Gardens","Gloucester Road Garden","Gloucester Road, Wan Chai","公園及動植物公園","告士打道花園","灣仔告士打道","WAN CHAI","灣仔","PARK","公園","N.A.","N.A.","N.A.","N.A.","N.A.","N.A.","N.A.","N.A.","N.A.","N.A.","N.A.","N.A.","815656.0","835807.0","22.27978051","114.17240889","2019-10-18 03:35:55"
"MpEQmqOGjF","Parks, Zoos and Gardens","Tamar Park","Harcourt Road, Admiralty","公園及動植物公園","添馬公園","金鐘夏慤道","CENTRAL AND WESTERN","中西區","AMPHITHEATRE,CAFE,FLOATING PLATFORM,LANDSCAPED GARDEN,PARK,WATER FEATURES","露天劇場,茶座,觀景台,園景花園,公園,特色水景","24 hours daily","每日24 小時開放","2520 2321","2520 2321","2520 2393","2520 2393","cwdo@lcsd.gov.hk","cwdo@lcsd.gov.hk","N.A.","N.A.","N.A.","N.A.","815831.0","835103.0","22.28135824","114.16557869","2019-10-18 03:34:53"
"jebQerJrxW","Parks, Zoos and Gardens","Tsuen Wan Park","59 Wing Shun Street, Tsuen Wan","公園及動植物公園","荃灣公園","荃灣永順街59號","TSUEN WAN","荃灣","AMPHITHEATRE,CYCLING TRACKS/GROUNDS,DOG GARDENS/PET GARDENS,GATEBALL COURTS,JOGGING TRACKS/FITNESS TRAILS,PARK,TENNIS COURTS","露天劇場,單車徑/場,狗公園/寵物公園,門球場,緩跑徑/健身徑,公園,網球場","N.A.","N.A.","N.A.","N.A.","N.A.","N.A.","N.A.","N.A.","http://www.lcsd.gov.hk/en/ls_park.php","http://www.lcsd.gov.hk/b5/ls_park.php","N.A.","N.A.","825329.0","829671.0","22.36711399","114.11282231","2019-10-18 03:30:26"
"DMXvsIKYYc","Parks, Zoos and Gardens","Sha Tin Park","2 Yuen Wo Road, Shatin","公園及動植物公園","沙田公園","沙田源禾路2號","SHA TIN","沙田","AMPHITHEATRE,PARK","露天劇場,公園","N.A.","N.A.","N.A.","N.A.","N.A.","N.A.","N.A.","N.A.","http://www.lcsd.gov.hk/en/ls_park.php","http://www.lcsd.gov.hk/b5/ls_park.php","N.A.","N.A.","826698.0","837606.0","22.37949163","114.18987333","2019-10-18 03:24:46"
"fJjRzFzbeH","Parks, Zoos and Gardens","Kowloon Park","22 Austin Road, Tsim Sha Tsui","公園及動植物公園","九龍公園","尖沙咀柯士甸道22號","YAU TSIM MONG","油尖旺","AMPHITHEATRE,HANDBALL COURTS,HARD-SURFACE PITCHES,JOGGING TRACKS/FITNESS TRAILS,PARK","露天劇場,手球場,硬地球場,緩跑徑/健身徑,公園","N.A.","N.A.","N.A.","N.A.","N.A.","N.A.","N.A.","N.A.","http://www.lcsd.gov.hk/en/ls_park.php","http://www.lcsd.gov.hk/b5/ls_park.php","7-a-side soccer pitch cum handball court","7人足球場暨手球場","817908.0","835581.0","22.30011781","114.17021018","2019-10-18 03:24:36"
"wpAN17dM0g","Parks, Zoos and Gardens","Lai Chi Kok Park","1 Lai Wan Road, Lai Chi Kok","公園及動植物公園","荔枝角公園","荔枝角荔灣道1號","SHAM SHUI PO","深水埗","AMPHITHEATRE,BASKETBALL COURTS,GATEBALL COURTS,HANDBALL COURTS,HARD-SURFACE PITCHES,JOGGING TRACKS/FITNESS TRAILS,PARK,SKATEBOARD GROUNDS,TENNIS COURTS,VOLLEYBALL COURTS","露天劇場,籃球場,門球場,手球場,硬地球場,緩跑徑/健身徑,公園,滑板場,網球場,排球場","N.A.","N.A.","N.A.","N.A.","N.A.","N.A.","N.A.","N.A.","http://www.lcsd.gov.hk/en/ls_park.php","http://www.lcsd.gov.hk/b5/ls_park.php","7-a-side soccer pitch","7人足球場","822267.0","832158.0","22.3394756","114.13698489","2019-10-18 03:23:47"
"YT3zdvHx8v","Parks, Zoos and Gardens","Ap Lei Chau Wind Tower Park","Lei Chi Road, Ap Lei Chau, Hong Kong","公園及動植物公園","鴨脷洲風之塔公園","香港鴨脷洲利枝道","SOUTHERN","南區","AMPHITHEATRE,PARK","露天劇場,公園","Exhibition Gallery: 9:00am - 9:00pm daily<br/>Other park area: 24 hours daily","展覽館: 每日早上9時至晚上9時<br/>其他公園範圍: 每日24小時","2555 0103","2555 0103","N.A.","N.A.","N.A.","N.A.","N.A.","N.A.","N.A.","N.A.","811762.0","833802.0","22.24461204","114.15295796","2019-10-18 03:23:35"
"ljyTAig9LJ","Parks, Zoos and Gardens","Hong Kong Velodrome Park","105-107 Po Hong Road, Tseung Kwan O","公園及動植物公園","香港單車館公園","將軍澳寶康路105-107號","SAI KUNG","西貢","AMPHITHEATRE,CYCLING TRACKS/GROUNDS,JOGGING TRACKS/FITNESS TRAILS,MODEL BOAT POOLS,PLAY EQUIPMENT FOR ALL CHILDREN","露天劇場,單車徑/場,緩跑徑/健身徑,模型船池,共融遊樂設施","N.A.","N.A.","N.A.","N.A.","N.A.","N.A.","N.A.","N.A.","http://www.lcsd.gov.hk/en/parks/vdp/index.html","http://www.lcsd.gov.hk/tc/parks/vdp/index.html","N.A.","N.A.","819464.0","844935.0","22.31414232","114.26099282","2019-10-18 03:23:11"
"VEZTAkVpGw","Parks, Zoos and Gardens","Mui Wo River Silver Garden","Ngan Shek Street, Mui Wo, Lantau","公園及動植物公園","梅窩銀河花園","大嶼山梅窩銀石街","ISLANDS","離島","AMPHITHEATRE,PARK","露天劇場,公園","24 hours (except maintenance day)","24 小時(定期保養日除外)","28524845","28524845","N.A.","N.A.","N.A.","N.A.","N.A.","N.A.","Open Air Theatre","露天劇場","814298.0","817735.0","22.2674179","113.99706424","2019-10-18 03:22:58"
"miZxcmDeKy","Parks, Zoos and Gardens","Victoria Park","1 Hing Fat Street, Causeway Bay","公園及動植物公園","維多利亞公園","銅鑼灣興發街一號","WAN CHAI","灣仔","AMPHITHEATRE,BASKETBALL COURTS,BOWLING GREENS,HARD-SURFACE PITCHES,JOGGING TRACKS/FITNESS TRAILS,MODEL BOAT POOLS,PARK,TENNIS COURTS","露天劇場,籃球場,草地滾球場,硬地球場,緩跑徑/健身徑,模型船池,公園,網球場","24 hours","24小時","2890 5824","2890 5824","2882 4151","2882 4151","vp@lcsd.gov.hk","vp@lcsd.gov.hk","http://www.lcsd.gov.hk/en/ls_park.php","http://www.lcsd.gov.hk/b5/ls_park.php","7-a-side soccer pitch","七人足球場","815965.0","837438.0","22.28256382","114.18822735","2019-10-18 03:22:41"
"blUhXe01yV","Parks, Zoos and Gardens","Tsing Yi Park","Tsing Luk Street, Tsing Yi","公園及動植物公園","青衣公園","青衣青綠街","KWAI TSING","葵青","BASKETBALL COURTS,HANDBALL COURTS,HARD-SURFACE PITCHES,PARK,TENNIS COURTS,AMPHITHEATRE","籃球場,手球場,硬地球場,公園,網球場,露天劇場","N.A.","N.A.","N.A.","N.A.","N.A.","N.A.","N.A.","N.A.","http://www.lcsd.gov.hk/en/ls_park.php","http://www.lcsd.gov.hk/b5/ls_park.php","7-a-side Soccer Pitch","7人足球場","824116.0","828954.0","22.35616427","114.10587214","2019-10-18 03:22:24"
"AqubCw5xh5","Parks, Zoos and Gardens","Kwong Fuk Sitting-out Area","Kwong Wang Street, Tai Po","公園及動植物公園","廣福休憩處","大埔廣宏街","TAI PO","大埔","SITTING-OUT AREA","休憩處","N.A.","N.A.","N.A.","N.A.","N.A.","N.A.","N.A.","N.A.","N.A.","N.A.","N.A.","N.A.","834174.0","835940.0","22.44700107","114.17368793","2019-01-29 06:18:17"
"vhrz4OouUm","Parks, Zoos and Gardens","Wong Nai Chung Road Crescent Garden","Wong Nai Chung Road, Happy Valley, Hong Kong","公園及動植物公園","黃泥涌道新月花園","香港跑馬地黃泥涌道","WAN CHAI","灣仔","PARK","公園","N.A.","N.A.","2895 1523","2895 1523","N.A.","N.A.","N.A.","N.A.","N.A.","N.A.","- 1 set of Play Equipment for Toddlers of Age 2-5 (including climbing frame, swings and play panels). <br/>- 1 set of Play Equipment for Children of Age 5-12 (including climbing frame, slides, play panels, sway boat and climbing wall).","- 1套適合2-5歲兒童使用的組件（包括：攀爬架、鞦韆、遊戲板)<br/>- 1套適合5-12歲兒童使用的組件（包括：攀爬架、滑梯、遊戲板、搖搖船、攀爬牆）","814596.0","837031.0","22.27020923","114.18428517","2018-12-03 06:44:22"
"I2a64DY2ls","Parks, Zoos and Gardens","Ngau Tau Kok Park","199 Kwun Tong Road, Kowloon","公園及動植物公園","牛頭角公園","九龍觀塘道199號","KWUN TONG","觀塘","JOGGING TRACKS/FITNESS TRAILS,HARD-SURFACE PITCHES","緩跑徑/健身徑,硬地球場","7 am to 11 pm (Soccer)<br/><br/>24 hours daily (Jogging Tracks)","上午7時至晚上11時 (Soccer)<br/><br/>每日24小時開放 (Jogging Tracks)","2343 6123","2343 6123","N.A.","N.A.","N.A.","N.A.","http://www.lcsd.gov.hk/en/facilities/facilitieslist/facilities.php?ftid=3&did=6&fcid=8 (Soccer)<br/><br/>http://www.lcsd.gov.hk/en/facilities/facilitieslist/facilities.php?ftid=26&did=6 (Jogging Tracks)","http://www.lcsd.gov.hk/tc/facilities/facilitieslist/facilities.php?ftid=3&did=6&fcid=8 (Soccer)<br/><br/>http://www.lcsd.gov.hk/tc/facilities/facilitieslist/facilities.php?ftid=26&did=6 (Jogging Tracks)","7-a-side Soccer Pitches (Free Outdoor Pitches/Courts)<br/><br/>Jogging Tracks / Fitness Trails","七人足球場 (戶外免費球場)<br/><br/>緩跑徑 / 健身徑","820441.0","840197.0","22.32298436","114.21501591","2017-03-02 04:32:48"
"7Px3rbSQmS","Parks, Zoos and Gardens","Oaklands Avenue Sitting-out Area","Oaklands Avenue, Mid-level","公園及動植物公園","屋蘭士街休憩處","半山屋蘭士街","CENTRAL AND WESTERN","中西區","DOG GARDENS/PET GARDENS","狗公園/寵物公園","N.A.","N.A.","N.A.","N.A.","N.A.","N.A.","N.A.","N.A.","http://www.lcsd.gov.hk/en/facilities/facilitieslist/facilities.php?ftid=47&did=1","http://www.lcsd.gov.hk/tc/facilities/facilitieslist/facilities.php?ftid=47&did=1","N.A.","N.A.","816006.0","832836.0","22.28293107","114.14357793","2016-07-14 03:38:10"
"du0UFjuJMg","Parks, Zoos and Gardens","Wan Po Road Pet Garden","Wan Po Road, Tseung Kwan O, Sai Kung","公園及動植物公園","環保大道寵物公園","西貢將軍澳環保大道","SAI KUNG","西貢","DOG GARDENS/PET GARDENS","狗公園/寵物公園","7:00 am to 9:00 pm daily","每日上午七時至下午九時","2791 3100","2791 3100","N.A.","N.A.","N.A.","N.A.","N.A.","N.A.","Amenity Lawn for pets, Drink fountain for dogs, Dog’s latrine, Garden benches, Toilet","休憩草坪, 狗隻飲水器, 狗廁所, 公園座椅, 洗手間","818455.0","845745.0","22.30502708","114.26885517","2016-06-14 08:54:20"
"CA262F1tyi","Parks, Zoos and Gardens","Po Lam Sitting-Out Area","Po Lam Road North, Tseung Kwan O, Sai Kung","公園及動植物公園","寶琳休憩處","西貢將軍澳寶琳北路","SAI KUNG","西貢","SITTING-OUT AREA,DOG GARDENS/PET GARDENS","休憩處,狗公園/寵物公園","24 hours","全日開放","N.A.","N.A.","N.A.","N.A.","N.A.","N.A.","N.A.","N.A.","Sitting-Out Area/Pet Garden","休憩處/寵物公園","820914.0","844214.0","22.32723834","114.25400714","2016-05-04 04:27:51"
"qcg70gM907","Parks, Zoos and Gardens","San Ha Street Playground","San Ha Street","公園及動植物公園","新廈街遊樂場","新廈街","EASTERN","東區","PARK","公園","N.A.","N.A.","2564 2539","2564 2539","2590 6926","2590 6926","N.A.","N.A.","N.A.","N.A.","N.A.","N.A.","813948.0","843265.0","22.26433791","114.24476331","2015-06-03 06:38:24"
"Axj752YtqU","Parks, Zoos and Gardens","Po Kong Village Road / Shung Wah Street Sitting-out Area","J/O Po Kong Village Road / Shung Wah Street","公園及動植物公園","蒲崗村道 / 崇華街休憩處","蒲崗村道 / 崇華街交界","WONG TAI SIN","黃大仙","DOG GARDENS/PET GARDENS","狗公園/寵物公園","24 hours daily","每日24小時開放","2351 7535","2351 7535","N.A.","N.A.","N.A.","N.A.","N.A.","N.A.","Pet Corner, Arbours with benches, Pets’ play equipment<br/><br/>Drinking fountain","寵物角、蔭棚連坐椅、寵物遊戲設施、 飲水器","822975.0","838608.0","22.34587074","114.19959062","2015-05-13 06:30:36"
"ByBtZORk1n","Parks, Zoos and Gardens","Tin Yip Road Park","Tin Yip Road, Tin Shui Wai","公園及動植物公園","天業路公園","新界天水圍天業路","YUEN LONG","元朗","PARK,GRASS PITCHES","公園,草地球場","8:00am to 11:00pm daily","每日上午8時至晚上11時","2682 3197","2682 3197","N.A.","N.A.","N.A.","N.A.","N.A.","N.A.","11-A-Side Soccer Pitches, Toilet<br/><br/>Changing Room, Accessible Toilet, Babycare Room","十一人足球場,洗手間<br/><br/>更衣室, 暢通易達洗手間, 育嬰間","835981.0","818830.0","22.46323409","114.00744969","2015-05-13 04:30:22"
"m4eTpovRSE","Parks, Zoos and Gardens","Jordan Valley Park","No.71, New Clear Water Bay Road","公園及動植物公園","佐敦谷公園","觀塘新清水灣道71號","KWUN TONG","觀塘","PARK,MODEL CAR PLAY AREA,JOGGING TRACKS/FITNESS TRAILS","公園,模型車場,緩跑徑/健身徑","N.A.","","2342 2241","2342 2241","N.A.","N.A.","N.A.","N.A.","","","4 Jogging Tracks with 1,115m length and Fitness Stations","4條全長1,115米設有健身站的緩跑徑","821201.0","840897.0","22.32984225","114.22180663","2015-05-13 03:14:59"
"115xU1eR6m","Parks, Zoos and Gardens","Wai Lok Street Temporary Soccer Pitch","Wai Yip Street and Wai Lok Street junction, Kwun Tong, Kowloon (near Laguna Park)","公園及動植物公園","偉樂街臨時足球場","九龍觀塘偉業街與偉樂街交界(近麗港公園)","KWUN TONG","觀塘","GRASS PITCHES","草地球場","8 am to 6 pm daily (except Monday)","每日上午8時至下午6時（星期一除外）","2343 6123 / 2717 5705","2343 6123 / 2717 5705","N.A.","N.A.","N.A.","N.A.","N.A.","N.A.","7-A-Side Soccer Pitches, Changing facilities（showering facilities are not provided）, Portable toilets","7人足球場, 更衣室（不設淋浴設施）, 流動廁所","818336.0","841333.0","22.30397107","114.22603648","2015-05-13 03:07:28"
"RzN9mQXm2J","Parks, Zoos and Gardens","Tai Ping Village Playground","Po Lo Che Road, Sai Kung","公園及動植物公園","太平村遊樂場","西貢菠蘿輋路","SAI KUNG","西貢","BASKETBALL COURTS","籃球場","7am – 6pm","上午7時至晚上6時","2791 3100","2791 3100","N.A.","N.A.","N.A.","N.A.","N.A.","N.A.","1 basketball court","1個籃球場","826823.0","845051.0","22.38060389","114.26216009","2015-05-12 02:18:18"
"sbvnNsnhcJ","Parks, Zoos and Gardens","Tseung Kwan O Waterfront Park","Tong Chun Street, Tseung Kwan O, Sai Kung","公園及動植物公園","將軍澳海濱公園","西貢將軍澳唐俊街","SAI KUNG","西貢","DOG GARDENS/PET GARDENS","狗公園/寵物公園","24 hours daily","每日24小時開放","2791 3100","2791 3100","N.A.","N.A.","N.A.","N.A.","N.A.","N.A.","Dog Excreta Collection Bin, Pet Latrine, <br/><br/>Hand-washing Facility and Turf area for pet. Arbours with benches","狗糞收集箱、寵物廁所、洗手設備和草坪(寵物活動區)，蔭棚連坐椅","818126.0","844979.0","22.30205735","114.26141938","2015-05-07 03:48:46"
"X2tjPVE39w","Parks, Zoos and Gardens","Ma On Shan Promenade","Ning Tai Road, Ma On Shan","公園及動植物公園","馬鞍山海濱長廊","馬鞍山寧泰路","SHA TIN","沙田","PARK","公園","24 Hours","全日開放","2643 5320","2643 5320","N.A.","N.A.","N.A.","N.A.","N.A.","N.A.","Male and Female Toilet, Toilet for persons with disabilities, Fitness Station","男、女洗手間, 殘疾人士洗手間, 健體站","829948.0","840750.0","22.40883274","114.22040918","2014-09-17 06:58:42"
"PCHX6uonyw","Parks, Zoos and Gardens","Quarry Bay Promenade","Hoi Yu Street, Quarry Bay","公園及動植物公園","鰂魚涌海濱花園","鰂魚涌海裕街","EASTERN","東區","DOG GARDENS/PET GARDENS","狗公園/寵物公園","24 hours daily","每日24小時","2513 8499","2513 8499","N.A.","N.A.","N.A.","N.A.","N.A.","N.A.","Arbour, benches and dog excreta collection bins","涼亭、座椅及狗糞收集箱","816832.0","840131.0","22.29039576","114.2143695","2014-09-16 08:04:27"
"XJtP9Khs5q","Parks, Zoos and Gardens","Tung Chung North Park","No. 29 Man Tung Road, Tung Chung","公園及動植物公園","東涌北公園","東涌文東路29號","ISLANDS","離島","PLAY EQUIPMENT FOR ALL CHILDREN","共融遊樂設施","7 am to 11 pm daily (Free of charge)","每日上午7時至晚上11時 (免費使用)","21093423","21093423","N.A.","N.A.","N.A.","N.A.","N.A.","N.A.","1 set of Play Equipment for Age 2-5, 1 set of Play Equipment for Age 5-12, 1 spectator stand with 200 seats, Toilets, bathing and changing rooms, Floodlight system","1套適合2-5歲兒童使用的組件, 1套適合5-12 歲兒童使用的組件, 觀眾看台(約200人), 洗手間、浴室及更衣室, 泛光燈","816896.0","812774.0","22.29081439","113.94888916","2012-10-29 06:32:41"
"mmUuxFQDGX","Parks, Zoos and Gardens","Tsing Yi Northeast Park","10, Tam Kon Shan Road, Tsing Yi","公園及動植物公園","青衣東北公園","青衣担杆山路10號","KWAI TSING","葵青","GRASS PITCHES, BASKETBALL COURTS, VOLLEYBALL COURTS, GATEBALL COURTS, CYCLING TRACKS/GROUNDS, SKATEBOARD GROUNDS, JOGGING TRACKS/FITNESS TRAILS","草地球場, 籃球場, 排球場, 門球場, 單車徑/場, 滑板場, 緩跑徑/健身徑","N.A.","N.A.","N.A.","N.A.","N.A.","N.A.","N.A.","N.A.","N.A.","N.A.","11-A-SIDE ARTIFICIAL TURF SOCCER PITCH, 2 BASKETBALL-CUM-VOLLEYBALL COURTS, GATEBALL COURT, CYCLING TRACK, CYCLING TRACK FOR CHILDREN ,SKATEBOARD ARENA, CHILDREN’S PLAY AREAS, WALKING TILE, PIAZZA, WATERFRONT PROMENADE, JOGGING TRAIL WITH FITNESS STATIONS, FITNESS CORNER FOR ELDERLY, LANDSCAPED AREA, BIKE KIOSK, AND A FEE PAYING PUBLIC CAR PARK WITH 33 CAR PARKING SPACES.","十一人人造草地足球場、2個籃球場暨排球場、門球場、單車徑、兒童單車徑、滑板場、兒童遊樂場、足健徑、露天廣場、海濱長廊、設有健體站的緩跑徑、長者健體園地、園景區、單車租用亭 及一個設有三十三個車位的公眾收費停車場。","824803.0","828227.0","22.36236049","114.09881255","2012-10-03 03:22:26"
"cyGZCbLLIT","Parks, Zoos and Gardens","Cornwall Street Park","17 Cornwall Street, Kowloon Tong, Kowloon","公園及動植物公園","歌和老街公園","九龍塘歌和老街17號","SHAM SHUI PO","深水埗","PARK, JOGGING TRACKS/FITNESS TRAILS","公園, 緩跑徑/健身徑","N.A.","N.A.","N.A.","N.A.","N.A.","N.A.","N.A.","N.A.","N.A.","N.A.","N.A.","N.A.","822201.0","835970.0","22.33887904","114.17399032","2012-08-24 02:47:28"
"8RKSlmKXaI","Parks, Zoos and Gardens","Hoi Wong Road Garden","Hoi Wong Road, Tuen Mun (Next to Tuen Mun Swimming Pool)","公園及動植物公園","海皇路花園","屯門海皇路(屯門泳池側)","TUEN MUN","屯門","PARK","公園","24 hours daily","每日24小時開放","2451 3110","2451 3110","N.A.","N.A.","N.A.","N.A.","http://www.lcsd.gov.hk/lsb/en/facilities.php?ftid=47&did=14","http://www.lcsd.gov.hk/lsb/b5/facilities.php?ftid=47&did=14","Pet Playing Equipment, Dog Excreta Collection Bin, Pet Latrine, Hand-washing Facility and Turf area for pet","寵物遊樂設施、狗糞收集箱、寵物廁所、洗手設備和草坪(寵物活動區)","827384.0","814989.0","22.3855588","113.97024581","2011-07-27 06:38:50"
"bo0YEMwZVW","Parks, Zoos and Gardens","Ngau Chi Wan Park","71 Fung Shing Street, Ngau Chi Wan, Wong Tai Sin","公園及動植物公園","牛池灣公園","黃大仙牛池灣豐盛街71號","WONG TAI SIN","黃大仙","PARK,ARCHERY RANGES, BASKETBALL COURTS","公園, 射箭場, 籃球場","N.A.","N.A.","N.A.","N.A.","N.A.","N.A.","N.A.","N.A.","N.A.","N.A.","N.A.","N.A.","821899.0","840072.0","22.33615123","114.21380222","2010-12-23 02:52:47"
"NoqFVkXgYs","Parks, Zoos and Gardens","Middle Road Children's Playground","Middle Road, Tsim Sha Tsui, Kowloon","公園及動植物公園","中間道兒童遊樂場","九龍尖沙咀中間道","YAU TSIM MONG","油尖旺","PLAY EQUIPMENT FOR ALL CHILDREN","共融遊樂設施","N.A.","N.A.","N.A.","N.A.","N.A.","N.A.","N.A.","N.A.","N.A.","N.A.","N.A.","N.A.","817387.0","835981.0","22.29541388","114.17409407","2010-12-06 06:42:38"
"4WX0os0I1H","Parks, Zoos and Gardens","Fung Tak Park","42, Fung Tak Road, Wong Tai Sin, Kowloon","公園及動植物公園","鳳德公園","九龍黃大仙鳳德道42號","WONG TAI SIN","黃大仙","PARK, PLAY EQUIPMENT FOR ALL CHILDREN","公園, 共融遊樂設施","N.A.","N.A.","N.A.","N.A.","N.A.","N.A.","N.A.","N.A.","N.A.","N.A.","N.A.","N.A.","822589.0","838449.0","22.34238515","114.19805529","2010-12-06 04:22:01"
"areSw6Rl3I","Parks, Zoos and Gardens","Nam Cheong Park","20 Sham Mong Road, Kowloon","公園及動植物公園","南昌公園","九龍深旺道20號","SHAM SHUI PO","深水埗","PLAY EQUIPMENT FOR ALL CHILDREN","共融遊樂設施","N.A.","N.A.","N.A.","N.A.","N.A.","N.A.","N.A.","N.A.","N.A.","N.A.","N.A.","N.A.","820563.0","834262.0","22.32409123","114.1574113","2010-12-06 04:19:53"
"P5fuf2N5u4","Parks, Zoos and Gardens","Lion Rock Park","Chuk Yuen Road, Wong Tai Sin, Kowloon","公園及動植物公園","獅子山公園","九龍黃大仙竹園道","WONG TAI SIN","黃大仙","PARK","公園","N.A.","N.A.","N.A.","N.A.","N.A.","N.A.","N.A.","N.A.","N.A.","N.A.","N.A.","N.A.","822861.0","836986.0","22.34484541","114.18384743","2010-12-02 04:12:57"
"sXOgLTlfAB","Parks, Zoos and Gardens","Ma On Shan Park","12 On Chun Street, Ma On Shan","公園及動植物公園","馬鞍山公園","馬鞍山鞍駿街12號","SHA TIN","沙田","PARK, JOGGING TRACKS/FITNESS TRAILS","公園, 緩跑徑/健身徑","N.A.","N.A.","N.A.","N.A.","N.A.","N.A.","N.A.","N.A.","http://www.lcsd.gov.hk/en/ls_park.php","http://www.lcsd.gov.hk/b5/ls_park.php","N.A.","N.A.","831992.0","841859.0","22.4272941","114.23118521","2010-10-13 06:52:50"
"LVE18DbyCn","Parks, Zoos and Gardens","North Point Promenade","North Point Ferry Pier, Hong Kong","公園及動植物公園","北角海濱花園","香港北角渡輪碼頭","EASTERN","東區","PARK","公園","24 hrs","24小時","N.A.","N.A.","N.A.","N.A.","N.A.","N.A.","N.A.","N.A.","Pet corner, elderly fitness equipment, garden benches, landscaping area","寵物角、長者健身設施、公園椅、園景","817174.0","838804.0","22.29348308","114.20149094","2010-10-06 08:17:09"
"sSEeWWvi6f","Parks, Zoos and Gardens","North District Park","Jockey Club Road, Sheung Shui","公園及動植物公園","北區公園","上水馬會道","NORTH","北區","PARK, HARD-SURFACE PITCHES, BASKETBALL COURTS, VOLLEYBALL COURTS, HANDBALL COURTS, JOGGING TRACKS/FITNESS TRAILS","公園, 硬地球場, 籃球場, 排球場, 手球場, 緩跑徑/健身徑","N.A.","N.A.","N.A.","N.A.","N.A.","N.A.","N.A.","N.A.","http://www.lcsd.gov.hk/en/ls_park.php","http://www.lcsd.gov.hk/b5/ls_park.php","7-a-side soccer pitch","7人足球場","839924.0","831867.0","22.49892247","114.13411131","2010-07-06 03:25:59"
"nZArw8Lcn4","Parks, Zoos and Gardens","Quarry Bay Park","Near Hoi Tai Street, Quarry Bay","公園及動植物公園","鰂魚涌公園","鰂魚涌近海堤街","EASTERN","東區","PARK, GRASS PITCHES, TENNIS COURTS, BASKETBALL COURTS, CYCLING TRACKS/GROUNDS, JOGGING TRACKS/FITNESS TRAILS","公園, 草地球場, 網球場, 籃球場, 單車徑/場, 緩跑徑/健身徑","","","","","","","","","http://www.lcsd.gov.hk/en/ls_park.php","http://www.lcsd.gov.hk/b5/ls_park.php","7-a-side Artificial Turf Football Pitches","7人人造草足球場","816612.0","840251.0","22.28840423","114.21552469","2010-04-21 02:59:37"
"updsx7Sxwa","Parks, Zoos and Gardens","Chai Wan Park","Chai Wan Park, Tsui Wan Street, Chai Wan","公園及動植物公園","柴灣公園","柴灣翠灣街柴灣公園","EASTERN","東區","PARK, HARD-SURFACE PITCHES, BASKETBALL COURTS, TENNIS COURTS, JOGGING TRACKS/FITNESS TRAILS, MODEL BOAT POOLS","公園, 硬地球場, 籃球場, 網球場, 緩跑徑/健身徑, 模型船池","N.A.","N.A.","N.A.","N.A.","N.A.","N.A.","N.A.","N.A.","http://www.lcsd.gov.hk/parks/cwp/en/index.html","http://www.lcsd.gov.hk/parks/cwp/b5/index.html","7-a-side soccer pitch","7人足球場","814162.0","842618.0","22.26627749","114.23848686","2010-04-15 09:35:24"
"5K0bBxQNUU","Parks, Zoos and Gardens","Tin Shui Wai Park","6 Tin Shui Road, Tin Shui Wai, Yuen Long","公園及動植物公園","天水圍公園","天水圍天瑞路6號","YUEN LONG","元朗","PARK, HARD-SURFACE PITCHES, TENNIS COURTS, BASKETBALL COURTS, VOLLEYBALL COURTS, GATEBALL COURTS, SKATEBOARD GROUNDS, MODEL CAR PLAY AREA, MODEL BOAT POOLS","公園, 硬地球場, 網球場, 籃球場, 排球場, 門球場, 滑板場, 模型車場, 模型船池","N.A.","N.A.","N.A.","N.A.","N.A.","N.A.","N.A.","N.A.","http://www.lcsd.gov.hk/en/ls_park.php","http://www.lcsd.gov.hk/b5/ls_park.php","5-a-side Soccer Pitch, Basketball cum Volleyball Courts","五人足球場, 籃球暨排球場","835143.0","818418.0","22.45565875","114.00345421","2010-04-15 09:34:21"
"wJ8k0Jn1W0","Parks, Zoos and Gardens","Central Kwai Chung Park","San Kwai Street, Kwai Chung","公園及動植物公園","中葵涌公園","葵涌新葵街","KWAI TSING","葵青","PARK, HARD-SURFACE PITCHES, BASKETBALL COURTS, VOLLEYBALL COURTS, JOGGING TRACKS/FITNESS TRAILS","公園, 硬地球場, 籃球場, 排球場, 緩跑徑/健身徑","N.A.","N.A.","N.A.","N.A.","N.A.","N.A.","N.A.","N.A.","http://www.lcsd.gov.hk/en/ls_park.php","http://www.lcsd.gov.hk/b5/ls_park.php","5-a-side soccer pitch","5人足球場","824230.0","831741.0","22.35719612","114.13292458","2010-03-09 07:25:50"
"K3dGu4TbGo","Parks, Zoos and Gardens","Shing Mun Valley Park","Shing Mun Road, Tsuen Wan","公園及動植物公園","城門谷公園","荃灣城門道","TSUEN WAN","荃灣","PARK, HARD-SURFACE PITCHES, TENNIS COURTS, BASKETBALL COURTS, VOLLEYBALL COURTS, HANDBALL COURTS","公園, 硬地球場, 網球場, 籃球場, 排球場, 手球場","N.A.","N.A.","N.A.","N.A.","N.A.","N.A.","N.A.","N.A.","http://www.lcsd.gov.hk/en/ls_park.php","http://www.lcsd.gov.hk/b5/ls_park.php","7-a-side soccer pitch cum handball court, basketball-cum-volleyball courts","7人足球場兼手球場, 籃球場兼排球場","826174.0","830933.0","22.37474917","114.12507259","2010-03-09 07:23:00"
"zIaqtroUOz","Parks, Zoos and Gardens","Yuen Long Park","Town Park Road North, Yuen Long","公園及動植物公園","元朗公園","元朗元朗公園北路","YUEN LONG","元朗","PARK, HARD-SURFACE PITCHES, GATEBALL COURTS, AVIARY PAGODA, HANDBALL COURTS","公園, 硬地球場, 門球場, 百鳥塔, 手球場","N.A.","N.A.","N.A.","N.A.","N.A.","N.A.","N.A.","N.A.","http://www.lcsd.gov.hk/en/ls_park.php","http://www.lcsd.gov.hk/b5/ls_park.php","7-a-side Soccer Pitch, 5-a-side Soccer Pitch","七人足球場, 五人足球場,","833684.0","820009.0","22.44249924","114.01892631","2010-03-09 07:21:13"
"aCyRzlBluT","Parks, Zoos and Gardens","Hong Kong Zoological & Botanical Gardens","Albany Road, Central & Western","公園及動植物公園","香港動植物公園","中西區雅賓利道","CENTRAL AND WESTERN","中西區","PARK","公園","N.A.","N.A.","N.A.","N.A.","N.A.","N.A.","N.A.","N.A.","http://www.lcsd.gov.hk/en/ls_park.php","http://www.lcsd.gov.hk/b5/ls_park.php","","","815425.0","834109.0","22.27768633","114.15592538","2010-03-09 07:19:58"
"dOhl3DpXNZ","Parks, Zoos and Gardens","West Kowloon Waterfront Promenade","West Kowloon Reclamation Area (J/O Austin Road West/ Nga Cheung Road)","公園及動植物公園","西九龍海濱長廊","西九龍填海區 (九龍柯士甸道西/雅翔道交界)","YAU TSIM MONG","油尖旺","PARK, CYCLING TRACKS/GROUNDS","公園, 單車徑/場","N.A.","N.A.","N.A.","N.A.","N.A.","N.A.","N.A.","N.A.","http://www.lcsd.gov.hk/en/ls_park.php","http://www.lcsd.gov.hk/b5/ls_park.php","N.A.","N.A.","817973.0","833969.0","22.30069709","114.15456913","2009-10-29 10:07:40"
"wxKnsizorm","Parks, Zoos and Gardens","Po Hong Park","Wan Lung Road, Tseung Kwan O","公園及動植物公園","寶康公園","將軍澳運隆路","SAI KUNG","西貢","PARK, HARD-SURFACE PITCHES, HANDBALL COURTS, BASKETBALL COURTS, VOLLEYBALL COURTS, GATEBALL COURTS, ROLLER SKATING RINKS, JOGGING TRACKS/FITNESS TRAILS","公園, 硬地球場, 手球場, 籃球場, 排球場, 門球場, 滾軸溜冰場, 緩跑徑/健身徑","N.A.","N.A.","N.A.","N.A.","N.A.","N.A.","N.A.","N.A.","http://www.lcsd.gov.hk/en/ls_park.php","http://www.lcsd.gov.hk/b5/ls_park.php","7-a-side soccer cum handball pitch","七人足球兼手球場","819977.0","844591.0","22.3187749","114.25765676","2009-10-29 06:27:20"
"fWDZXFWOpJ","Parks, Zoos and Gardens","Po Tsui Park","Po Hong Road, Tseung Kwan O","公園及動植物公園","寶翠公園","將軍澳寶康路","SAI KUNG","西貢","PARK, GRASS PITCHES, HARD-SURFACE PITCHES, TENNIS COURTS, HANDBALL COURTS, HOCKEY GROUNDS, JOGGING TRACKS/FITNESS TRAILS","公園, 草地球場, 硬地球場, 網球場, 手球場, 曲棍球場, 緩跑徑/健身徑","N.A.","N.A.","N.A.","N.A.","N.A.","N.A.","N.A.","N.A.","http://www.lcsd.gov.hk/en/ls_park.php","http://www.lcsd.gov.hk/b5/ls_park.php","11-a-side artificial turf soccer cum hockey pitch , 7-a-side soccer cum handball pitch, Tennis Practice Courts","11人人造草地足球場兼曲棍球場, 7人足球兼手球場, 網球練習場","820668.0","844110.0","22.3250173","114.2529916","2009-10-29 06:27:05"
"YiaaI2jovP","Parks, Zoos and Gardens","Shek Kip Mei Park","270 Nam Cheong Street, Sham Shui Po","公園及動植物公園","石硤尾公園","深水埗南昌街270號","SHAM SHUI PO","深水埗","PARK, GRASS PITCHES, HARD-SURFACE PITCHES, BASKETBALL COURTS, TENNIS COURTS, RUGBY PITCHES, JOGGING TRACKS/FITNESS TRAILS","公園, 草地球場, 硬地球場, 籃球場, 網球場, 欖球場, 緩跑徑/健身徑","N.A.","N.A.","N.A.","N.A.","N.A.","N.A.","N.A.","N.A.","http://www.lcsd.gov.hk/en/ls_park.php","http://www.lcsd.gov.hk/b5/ls_park.php","11-a-side turf soccer pitch/rugby pitch, 7-a-side soccer pitch","11人草地足球場/欖球場, 7人足球場","822169.0","835661.0","22.33858998","114.17098204","2009-10-29 06:25:59"
"RGYDT5cdLC","Parks, Zoos and Gardens","Kowloon Walled City Park","Tung Tsing Road,Kowloon City","公園及動植物公園","九龍寨城公園","九龍城東正道","KOWLOON CITY","九龍城","PARK","公園","N.A.","N.A.","N.A.","N.A.","N.A.","N.A.","N.A.","N.A.","http://www.lcsd.gov.hk/en/ls_park.php","http://www.lcsd.gov.hk/b5/ls_park.php","","","821401.0","837602.0","22.33165589","114.18982714","2009-09-18 07:53:46"
"c6vdVQAAra","Parks, Zoos and Gardens","Nan Lian Garden","Fung Tak Road, Diamond Hill, Wong Tai Sin","公園及動植物公園","南蓮園池","黃大仙鑽石山鳳德道60號","WONG TAI SIN","黃大仙","PARK","公園","N.A.","N.A.","N.A.","N.A.","N.A.","N.A.","N.A.","N.A.","http://www.lcsd.gov.hk/en/ls_park.php","http://www.lcsd.gov.hk/b5/ls_park.php","","","822229.0","839116.0","22.33912956","114.20452571","2009-08-27 09:50:19"
"WuH88p6S47","Parks, Zoos and Gardens","Hong Kong Park","19 Cotton Tree Drive, Central","公園及動植物公園","香港公園","中環紅棉路19號","CENTRAL AND WESTERN","中西區","PARK","公園","N.A.","N.A.","N.A.","N.A.","N.A.","N.A.","N.A.","N.A.","http://www.lcsd.gov.hk/en/ls_park.php","http://www.lcsd.gov.hk/b5/ls_park.php","","","815383.0","834672.0","22.27730765","114.16138826","2009-08-27 09:47:25"
"lxIS9bEv2Q","Parks, Zoos and Gardens","Yuen Po Street Bird Garden","Yuen Po Street, Mongkok","公園及動植物公園","園圃街雀鳥花園","旺角園圃街","YAU TSIM MONG","油尖旺","PARK","公園","N.A.","N.A.","N.A.","N.A.","N.A.","N.A.","N.A.","N.A.","http://www.lcsd.gov.hk/en/ls_park.php","http://www.lcsd.gov.hk/b5/ls_park.php","N.A.","N.A.","820749.0","835951.0","22.32577476","114.17380325","2009-08-27 09:07:52"
"9gHcg77oos","Parks, Zoos and Gardens","Tsuen Wan Riviera Park","2A Yi Hong Street, Tsuen Wan","公園及動植物公園","荃灣海濱公園","荃灣怡康街2A號","TSUEN WAN","荃灣","PARK, GRASS PITCHES, TENNIS COURTS, BASKETBALL COURTS, VOLLEYBALL COURTS, GATEBALL COURTS","公園, 草地球場, 網球場, 籃球場, 排球場, 門球場","N.A.","N.A.","N.A.","N.A.","N.A.","N.A.","N.A.","N.A.","http://www.lcsd.gov.hk/en/ls_park.php","http://www.lcsd.gov.hk/b5/ls_park.php","11-a-side Natural Grass Soccer Pitch, Basketball cum Volleyball Court","11人天然草地足球場, 籃球場暨排球場","824915.0","829602.0","22.36337508","114.1121541","2009-07-16 04:13:01"
